[{"OBJECT_NAME":"YAOGAN-39 05A","OBJECT_ID":"2023-194A","EPOCH":"2026-03-08T20:55:33.510432","MEAN_MOTION":15.23021204,"ECCENTRICITY":0.00045924,"INCLINATION":35.0016,"RA_OF_ASC_NODE":328.2574,"ARG_OF_PERICENTER":131.0582,"MEAN_ANOMALY":229.053,"EPHEMERIS_TYPE":0,"CLASSIFICATION_TYPE":"U","NORAD_CAT_ID":58557,"ELEMENT_SET_NO":999,"REV_AT_EPOCH":12505,"BSTAR":0.00065635507,"MEAN_MOTION_DOT":0.00015822,"MEAN_MOTION_DDOT":0},{"OBJECT_NAME":"SITRO-AIS-59","OBJECT_ID":"2025-313K","EPOCH":"2026-03-09T21:18:35.055936","MEAN_MOTION":15.21259923,"ECCENTRICITY":0.00156259,"INCLINATION":97.4001,"RA_OF_ASC_NODE":145.102,"ARG_OF_PERICENTER":358.3568,"MEAN_ANOMALY":1.7614,"EPHEMERIS_TYPE":0,"CLASSIFICATION_TYPE":"U","NORAD_CAT_ID":67257,"ELEMENT_SET_NO":999,"REV_AT_EPOCH":1084,"BSTAR":0.00052056429,"MEAN_MOTION_DOT":0.00011608,"MEAN_MOTION_DDOT":0}]
